COSMOS 2058             
1 20465U 90010A   26089.56893653  .00006895  00000+0  40522-3 0  9990
2 20465  82.4700  26.8537 0007510 259.3100 100.7285 15.11517304945395
SL-14 R/B               
1 20466U 90010B   26089.52778537  .00000670  00000+0  78223-4 0  9995
2 20466  82.4999 247.8093 0018678 228.3993 131.5622 14.83588944931579
SL-14 R/B               
1 20511U 90018B   26089.56559885  .00000569  00000+0  68354-4 0  9992
2 20511  82.5239 203.5814 0016800  27.9965 332.2150 14.82165929925678
HST                     
1 20580U 90037B   26089.55954355  .00010894  00000+0  35850-3 0  9995
2 20580  28.4723 257.5991 0001862  10.0531 350.0102 15.29811866776512
SL-16 R/B               
1 20625U 90046B   26089.55127653  .00000188  00000+0  12162-3 0  9994
2 20625  70.9979 254.0962 0016394 272.3185  87.6061 14.15017315851344
COSMOS 2084             
1 20663U 90055A   26089.57531263  .00004092  00000+0  29426-3 0  9993
2 20663  62.7893 264.3364 0013739 196.5527 163.5127 15.05770088939467
SL-6 R/B(2)             
1 20666U 90055D   26089.52010350  .00002773  00000+0  21425-3 0  9995
2 20666  62.7835 183.0081 0028216 351.7366   8.3265 15.03695905941320
SL-8 R/B                
1 20775U 90078B   26089.46904950  .00015162  00000+0  44927-3 0  9990
2 20775  82.9024 232.6109 0358221 303.9104  52.8520 14.89682313812392
SL-8 R/B                
1 21088U 91006B   26089.63705897  .00000126  00000+0  11127-3 0  9998
2 21088  82.9442 154.4723 0021724 339.9923 184.0405 13.77497603766952
OKEAN-3                 
1 21397U 91039A   26089.62420692  .00003516  00000+0  24607-3 0  9996
2 21397  82.5159 316.5594 0012403 259.4897 100.4932 15.04926327868180
COSMOS 2151             
1 21422U 91042A   26089.56100526  .00002752  00000+0  21782-3 0  9995
2 21422  82.4947  63.5366 0012160 357.6658   2.4507 15.00196826866327
SL-14 R/B               
1 21423U 91042B   26089.35298325  .00000594  00000+0  72021-4 0  9993
2 21423  82.4957 200.8101 0017341 168.5195 191.6418 14.81850783856130
