CCSDS_OMM_VERS = 2.0
CREATION_DATE  = 
ORIGINATOR     = 

OBJECT_NAME    = COSMOS 2058
OBJECT_ID      = 1990-010A
CENTER_NAME    = EARTH
REF_FRAME      = TEME
TIME_SYSTEM    = UTC
MEAN_ELEMENT_THEORY = SGP/SGP4

EPOCH          = 2026-03-30T13:39:16.116192
MEAN_MOTION    = 15.11517304
ECCENTRICITY   = .00075103
INCLINATION    = 82.4700
RA_OF_ASC_NODE = 26.8537
ARG_OF_PERICENTER = 259.3100
MEAN_ANOMALY   = 100.7285

EPHEMERIS_TYPE = 0
CLASSIFICATION_TYPE = U
NORAD_CAT_ID   = 20465
ELEMENT_SET_NO = 999
REV_AT_EPOCH   = 94539
BSTAR          = .40521912E-3
MEAN_MOTION_DOT = .6895E-4
MEAN_MOTION_DDOT = 0

CCSDS_OMM_VERS = 2.0
CREATION_DATE  = 
ORIGINATOR     = 

OBJECT_NAME    = SL-14 R/B
OBJECT_ID      = 1990-010B
CENTER_NAME    = EARTH
REF_FRAME      = TEME
TIME_SYSTEM    = UTC
MEAN_ELEMENT_THEORY = SGP/SGP4

EPOCH          = 2026-03-30T12:40:00.655968
MEAN_MOTION    = 14.83588944
ECCENTRICITY   = .00186786
INCLINATION    = 82.4999
RA_OF_ASC_NODE = 247.8093
ARG_OF_PERICENTER = 228.3993
MEAN_ANOMALY   = 131.5622

EPHEMERIS_TYPE = 0
CLASSIFICATION_TYPE = U
NORAD_CAT_ID   = 20466
ELEMENT_SET_NO = 999
REV_AT_EPOCH   = 93157
BSTAR          = .78223467E-4
MEAN_MOTION_DOT = .67E-5
MEAN_MOTION_DDOT = 0

CCSDS_OMM_VERS = 2.0
CREATION_DATE  = 
ORIGINATOR     = 

OBJECT_NAME    = SL-14 R/B
OBJECT_ID      = 1990-018B
CENTER_NAME    = EARTH
REF_FRAME      = TEME
TIME_SYSTEM    = UTC
MEAN_ELEMENT_THEORY = SGP/SGP4

EPOCH          = 2026-03-30T13:34:27.740640
MEAN_MOTION    = 14.82165929
ECCENTRICITY   = .00168007
INCLINATION    = 82.5239
RA_OF_ASC_NODE = 203.5814
ARG_OF_PERICENTER = 27.9965
MEAN_ANOMALY   = 332.2150

EPHEMERIS_TYPE = 0
CLASSIFICATION_TYPE = U
NORAD_CAT_ID   = 20511
ELEMENT_SET_NO = 999
REV_AT_EPOCH   = 92567
BSTAR          = .68354159E-4
MEAN_MOTION_DOT = .569E-5
MEAN_MOTION_DDOT = 0

CCSDS_OMM_VERS = 2.0
CREATION_DATE  = 
ORIGINATOR     = 

OBJECT_NAME    = HST
OBJECT_ID      = 1990-037B
CENTER_NAME    = EARTH
REF_FRAME      = TEME
TIME_SYSTEM    = UTC
MEAN_ELEMENT_THEORY = SGP/SGP4

EPOCH          = 2026-03-30T13:25:44.562720
MEAN_MOTION    = 15.29811866
ECCENTRICITY   = .00018625
INCLINATION    = 28.4723
RA_OF_ASC_NODE = 257.5991
ARG_OF_PERICENTER = 10.0531
MEAN_ANOMALY   = 350.0102

EPHEMERIS_TYPE = 0
CLASSIFICATION_TYPE = U
NORAD_CAT_ID   = 20580
ELEMENT_SET_NO = 999
REV_AT_EPOCH   = 77651
BSTAR          = .35850097E-3
MEAN_MOTION_DOT = .10894E-3
MEAN_MOTION_DDOT = 0

CCSDS_OMM_VERS = 2.0
CREATION_DATE  = 
ORIGINATOR     = 

OBJECT_NAME    = SL-16 R/B
OBJECT_ID      = 1990-046B
CENTER_NAME    = EARTH
REF_FRAME      = TEME
TIME_SYSTEM    = UTC
MEAN_ELEMENT_THEORY = SGP/SGP4

EPOCH          = 2026-03-30T13:13:50.292192
MEAN_MOTION    = 14.15017315
ECCENTRICITY   = .00163948
INCLINATION    = 70.9979
RA_OF_ASC_NODE = 254.0962
ARG_OF_PERICENTER = 272.3185
MEAN_ANOMALY   = 87.6061

EPHEMERIS_TYPE = 0
CLASSIFICATION_TYPE = U
NORAD_CAT_ID   = 20625
ELEMENT_SET_NO = 999
REV_AT_EPOCH   = 85134
BSTAR          = .12162176E-3
MEAN_MOTION_DOT = .188E-5
MEAN_MOTION_DDOT = 0

CCSDS_OMM_VERS = 2.0
CREATION_DATE  = 
ORIGINATOR     = 

OBJECT_NAME    = COSMOS 2084
OBJECT_ID      = 1990-055A
CENTER_NAME    = EARTH
REF_FRAME      = TEME
TIME_SYSTEM    = UTC
MEAN_ELEMENT_THEORY = SGP/SGP4

EPOCH          = 2026-03-30T13:48:27.011232
MEAN_MOTION    = 15.05770088
ECCENTRICITY   = .00137391
INCLINATION    = 62.7893
RA_OF_ASC_NODE = 264.3364
ARG_OF_PERICENTER = 196.5527
MEAN_ANOMALY   = 163.5127

EPHEMERIS_TYPE = 0
CLASSIFICATION_TYPE = U
NORAD_CAT_ID   = 20663
ELEMENT_SET_NO = 999
REV_AT_EPOCH   = 93946
BSTAR          = .29426127E-3
MEAN_MOTION_DOT = .4092E-4
MEAN_MOTION_DDOT = 0

CCSDS_OMM_VERS = 2.0
CREATION_DATE  = 
ORIGINATOR     = 

OBJECT_NAME    = SL-6 R/B(2)
OBJECT_ID      = 1990-055D
CENTER_NAME    = EARTH
REF_FRAME      = TEME
TIME_SYSTEM    = UTC
MEAN_ELEMENT_THEORY = SGP/SGP4

EPOCH          = 2026-03-30T12:28:56.942400
MEAN_MOTION    = 15.03695905
ECCENTRICITY   = .00282165
INCLINATION    = 62.7835
RA_OF_ASC_NODE = 183.0081
ARG_OF_PERICENTER = 351.7366
MEAN_ANOMALY   = 8.3265

EPHEMERIS_TYPE = 0
CLASSIFICATION_TYPE = U
NORAD_CAT_ID   = 20666
ELEMENT_SET_NO = 999
REV_AT_EPOCH   = 94132
BSTAR          = .21425444E-3
MEAN_MOTION_DOT = .2773E-4
MEAN_MOTION_DDOT = 0

CCSDS_OMM_VERS = 2.0
CREATION_DATE  = 
ORIGINATOR     = 

OBJECT_NAME    = SL-8 R/B
OBJECT_ID      = 1990-078B
CENTER_NAME    = EARTH
REF_FRAME      = TEME
TIME_SYSTEM    = UTC
MEAN_ELEMENT_THEORY = SGP/SGP4

EPOCH          = 2026-03-30T11:15:25.876800
MEAN_MOTION    = 14.89682313
ECCENTRICITY   = .03582214
INCLINATION    = 82.9024
RA_OF_ASC_NODE = 232.6109
ARG_OF_PERICENTER = 303.9104
MEAN_ANOMALY   = 52.8520

EPHEMERIS_TYPE = 0
CLASSIFICATION_TYPE = U
NORAD_CAT_ID   = 20775
ELEMENT_SET_NO = 999
REV_AT_EPOCH   = 81239
BSTAR          = .44926936E-3
MEAN_MOTION_DOT = .15162E-3
MEAN_MOTION_DDOT = 0

CCSDS_OMM_VERS = 2.0
CREATION_DATE  = 
ORIGINATOR     = 

OBJECT_NAME    = SL-8 R/B
OBJECT_ID      = 1991-006B
CENTER_NAME    = EARTH
REF_FRAME      = TEME
TIME_SYSTEM    = UTC
MEAN_ELEMENT_THEORY = SGP/SGP4

EPOCH          = 2026-03-30T15:17:21.895008
MEAN_MOTION    = 13.77497603
ECCENTRICITY   = .00217249
INCLINATION    = 82.9442
RA_OF_ASC_NODE = 154.4723
ARG_OF_PERICENTER = 339.9923
MEAN_ANOMALY   = 184.0405

EPHEMERIS_TYPE = 0
CLASSIFICATION_TYPE = U
NORAD_CAT_ID   = 21088
ELEMENT_SET_NO = 999
REV_AT_EPOCH   = 76695
BSTAR          = .11127093E-3
MEAN_MOTION_DOT = .126E-5
MEAN_MOTION_DDOT = 0

CCSDS_OMM_VERS = 2.0
CREATION_DATE  = 
ORIGINATOR     = 

OBJECT_NAME    = OKEAN-3
OBJECT_ID      = 1991-039A
CENTER_NAME    = EARTH
REF_FRAME      = TEME
TIME_SYSTEM    = UTC
MEAN_ELEMENT_THEORY = SGP/SGP4

EPOCH          = 2026-03-30T14:58:51.477888
MEAN_MOTION    = 15.04926327
ECCENTRICITY   = .00124034
INCLINATION    = 82.5159
RA_OF_ASC_NODE = 316.5594
ARG_OF_PERICENTER = 259.4897
MEAN_ANOMALY   = 100.4932

EPHEMERIS_TYPE = 0
CLASSIFICATION_TYPE = U
NORAD_CAT_ID   = 21397
ELEMENT_SET_NO = 999
REV_AT_EPOCH   = 86818
BSTAR          = .24607167E-3
MEAN_MOTION_DOT = .3516E-4
MEAN_MOTION_DDOT = 0

CCSDS_OMM_VERS = 2.0
CREATION_DATE  = 
ORIGINATOR     = 

OBJECT_NAME    = COSMOS 2151
OBJECT_ID      = 1991-042A
CENTER_NAME    = EARTH
REF_FRAME      = TEME
TIME_SYSTEM    = UTC
MEAN_ELEMENT_THEORY = SGP/SGP4

EPOCH          = 2026-03-30T13:27:50.854464
MEAN_MOTION    = 15.00196826
ECCENTRICITY   = .00121605
INCLINATION    = 82.4947
RA_OF_ASC_NODE = 63.5366
ARG_OF_PERICENTER = 357.6658
MEAN_ANOMALY   = 2.4507

EPHEMERIS_TYPE = 0
CLASSIFICATION_TYPE = U
NORAD_CAT_ID   = 21422
ELEMENT_SET_NO = 999
REV_AT_EPOCH   = 86632
BSTAR          = .21782235E-3
MEAN_MOTION_DOT = .2752E-4
MEAN_MOTION_DDOT = 0

CCSDS_OMM_VERS = 2.0
CREATION_DATE  = 
ORIGINATOR     = 

OBJECT_NAME    = SL-14 R/B
OBJECT_ID      = 1991-042B
CENTER_NAME    = EARTH
REF_FRAME      = TEME
TIME_SYSTEM    = UTC
MEAN_ELEMENT_THEORY = SGP/SGP4

EPOCH          = 2026-03-30T08:28:17.752800
MEAN_MOTION    = 14.81850783
ECCENTRICITY   = .0017341
INCLINATION    = 82.4957
RA_OF_ASC_NODE = 200.8101
ARG_OF_PERICENTER = 168.5195
MEAN_ANOMALY   = 191.6418

EPHEMERIS_TYPE = 0
CLASSIFICATION_TYPE = U
NORAD_CAT_ID   = 21423
ELEMENT_SET_NO = 999
REV_AT_EPOCH   = 85613
BSTAR          = .72021E-4
MEAN_MOTION_DOT = .594E-5
MEAN_MOTION_DDOT = 0

